start=new Date('2022-10-05T00:00:00.000Z').valueOf();
sats=[{"MEAN_MOTION_DDOT":"0.0000000000000","TIME_SYSTEM":"UTC","DECAY_DATE":null,"REV_AT_EPOCH":"13607","SITE":"AFETR","OBJECT_TYPE":"PAYLOAD","TLE_LINE1":"1 45569U 20025AQ  22277.79593320  .00004212  00000-0  30142-3 0  9998","OBJECT_ID":"2020-025AQ","FILE":"3591331","MEAN_MOTION":"15.06409875","GP_ID":"214163884","EPOCH":"2022-10-04T19:06:08.628480","PERIOD":"95.592","COUNTRY_CODE":"US","NORAD_CAT_ID":"45569","BSTAR":"0.00030142000000","ELEMENT_SET_NO":"999","MEAN_ANOMALY":"310.3737","SEMIMAJOR_AXIS":"6925.318","ECCENTRICITY":"0.00017570","REF_FRAME":"TEME","RA_OF_ASC_NODE":"306.5927","MEAN_MOTION_DOT":"0.00004212","RCS_SIZE":"LARGE","OBJECT_NAME":"STARLINK-1366","TLE_LINE2":"2 45569  53.0545 306.5927 0001757  49.7406 310.3737 15.06409875136071","CLASSIFICATION_TYPE":"U","PERIAPSIS":"545.967","INCLINATION":"53.0545","EPHEMERIS_TYPE":"0","LAUNCH_DATE":"2020-04-22","ARG_OF_PERICENTER":"49.7406","CENTER_NAME":"EARTH","MEAN_ELEMENT_THEORY":"SGP4","APOAPSIS":"548.400"},{"OBJECT_TYPE":"PAYLOAD","SITE":"AFETR","REV_AT_EPOCH":"13607","DECAY_DATE":null,"TIME_SYSTEM":"UTC","MEAN_MOTION_DDOT":"0.0000000000000","FILE":"3591330","OBJECT_ID":"2020-025AR","TLE_LINE1":"1 45570U 20025AR  22277.78855918  .00000583  00000-0  58065-4 0  9995","EPOCH":"2022-10-04T18:55:31.513152","GP_ID":"214163873","MEAN_MOTION":"15.06403729","MEAN_ANOMALY":"300.1324","SEMIMAJOR_AXIS":"6925.337","COUNTRY_CODE":"US","BSTAR":"0.00005806500000","ELEMENT_SET_NO":"999","NORAD_CAT_ID":"45570","PERIOD":"95.592","TLE_LINE2":"2 45570  53.0539 306.6140 0001665  59.9830 300.1324 15.06403729136077","RCS_SIZE":"LARGE","MEAN_MOTION_DOT":"0.00000583","OBJECT_NAME":"STARLINK-1376","RA_OF_ASC_NODE":"306.6140","REF_FRAME":"TEME","ECCENTRICITY":"0.00016650","EPHEMERIS_TYPE":"0","PERIAPSIS":"546.049","INCLINATION":"53.0539","CLASSIFICATION_TYPE":"U","ARG_OF_PERICENTER":"59.9830","LAUNCH_DATE":"2020-04-22","APOAPSIS":"548.355","MEAN_ELEMENT_THEORY":"SGP4","CENTER_NAME":"EARTH"},{"EPHEMERIS_TYPE":"0","INCLINATION":"53.0532","PERIAPSIS":"546.014","CLASSIFICATION_TYPE":"U","MEAN_MOTION_DOT":"0.00004222","RCS_SIZE":"LARGE","OBJECT_NAME":"STARLINK-1261","RA_OF_ASC_NODE":"298.0259","TLE_LINE2":"2 45571  53.0532 298.0259 0001701  60.3911 299.7247 15.06407070136174","ECCENTRICITY":"0.00017010","REF_FRAME":"TEME","CENTER_NAME":"EARTH","MEAN_ELEMENT_THEORY":"SGP4","APOAPSIS":"548.370","LAUNCH_DATE":"2020-04-22","ARG_OF_PERICENTER":"60.3911","OBJECT_ID":"2020-025AS","TLE_LINE1":"1 45571U 20025AS  22277.47248850  .00004222  00000-0  30211-3 0  9999","FILE":"3590907","SITE":"AFETR","OBJECT_TYPE":"PAYLOAD","TIME_SYSTEM":"UTC","DECAY_DATE":null,"MEAN_MOTION_DDOT":"0.0000000000000","REV_AT_EPOCH":"13617","SEMIMAJOR_AXIS":"6925.327","MEAN_ANOMALY":"299.7247","PERIOD":"95.592","COUNTRY_CODE":"US","BSTAR":"0.00030211000000","ELEMENT_SET_NO":"999","NORAD_CAT_ID":"45571","EPOCH":"2022-10-04T11:20:23.006400","GP_ID":"214129109","MEAN_MOTION":"15.06407070"},{"RCS_SIZE":"LARGE","MEAN_MOTION_DOT":"0.00001310","OBJECT_NAME":"STARLINK-1320","RA_OF_ASC_NODE":"296.5873","TLE_LINE2":"2 45572  53.0537 296.5873 0001794  65.9993 294.1184 15.06394489136828","ECCENTRICITY":"0.00017940","REF_FRAME":"TEME","EPHEMERIS_TYPE":"0","INCLINATION":"53.0537","PERIAPSIS":"545.988","CLASSIFICATION_TYPE":"U","LAUNCH_DATE":"2020-04-22","ARG_OF_PERICENTER":"65.9993","CENTER_NAME":"EARTH","APOAPSIS":"548.473","MEAN_ELEMENT_THEORY":"SGP4","SITE":"AFETR","OBJECT_TYPE":"PAYLOAD","TIME_SYSTEM":"UTC","DECAY_DATE":null,"MEAN_MOTION_DDOT":"0.0000000000000","REV_AT_EPOCH":"13682","OBJECT_ID":"2020-025AT","TLE_LINE1":"1 45572U 20025AT  22277.79686320  .00001310  00000-0  10685-3 0  9991","FILE":"3591597","GP_ID":"214188192","EPOCH":"2022-10-04T19:07:28.980480","MEAN_MOTION":"15.06394489","SEMIMAJOR_AXIS":"6925.365","MEAN_ANOMALY":"294.1184","PERIOD":"95.592","COUNTRY_CODE":"US","ELEMENT_SET_NO":"999","BSTAR":"0.00010685000000","NORAD_CAT_ID":"45572"},{"EPHEMERIS_TYPE":"0","CLASSIFICATION_TYPE":"U","INCLINATION":"53.0526","PERIAPSIS":"546.050","RA_OF_ASC_NODE":"296.6945","RCS_SIZE":"LARGE","OBJECT_NAME":"STARLINK-1321","MEAN_MOTION_DOT":"0.00001651","TLE_LINE2":"2 45573  53.0526 296.6945 0001644  57.6920 302.4228 15.06408330136519","ECCENTRICITY":"0.00016440","REF_FRAME":"TEME","CENTER_NAME":"EARTH","MEAN_ELEMENT_THEORY":"SGP4","APOAPSIS":"548.327","LAUNCH_DATE":"2020-04-22","ARG_OF_PERICENTER":"57.6920","TLE_LINE1":"1 45573U 20025AU  22277.77473811  .00001651  00000-0  12966-3 0  9991","OBJECT_ID":"2020-025AU","FILE":"3591597","SITE":"AFETR","OBJECT_TYPE":"PAYLOAD","MEAN_MOTION_DDOT":"0.0000000000000","TIME_SYSTEM":"UTC","DECAY_DATE":null,"REV_AT_EPOCH":"13651","SEMIMAJOR_AXIS":"6925.323","MEAN_ANOMALY":"302.4228","PERIOD":"95.592","COUNTRY_CODE":"US","BSTAR":"0.00012966000000","NORAD_CAT_ID":"45573","ELEMENT_SET_NO":"999","GP_ID":"214188442","EPOCH":"2022-10-04T18:35:37.372704","MEAN_MOTION":"15.06408330"},{"TLE_LINE2":"2 45574  53.0534 297.7457 0001892  59.3654 300.7522 15.06395523136794","RCS_SIZE":"LARGE","MEAN_MOTION_DOT":"-0.00000958","OBJECT_NAME":"STARLINK-1324","RA_OF_ASC_NODE":"297.7457","REF_FRAME":"TEME","ECCENTRICITY":"0.00018920","EPHEMERIS_TYPE":"0","INCLINATION":"53.0534","PERIAPSIS":"545.917","CLASSIFICATION_TYPE":"U","ARG_OF_PERICENTER":"59.3654","LAUNCH_DATE":"2020-04-22","MEAN_ELEMENT_THEORY":"SGP4","APOAPSIS":"548.538","CENTER_NAME":"EARTH","OBJECT_TYPE":"PAYLOAD","SITE":"AFETR","REV_AT_EPOCH":"13679","TIME_SYSTEM":"UTC","DECAY_DATE":null,"MEAN_MOTION_DDOT":"0.0000000000000","FILE":"3591597","OBJECT_ID":"2020-025AV","TLE_LINE1":"1 45574U 20025AV  22277.53515049 -.00000958  00000-0 -45389-4 0  9993","EPOCH":"2022-10-04T12:50:37.002336","GP_ID":"214188693","MEAN_MOTION":"15.06395523","MEAN_ANOMALY":"300.7522","SEMIMAJOR_AXIS":"6925.362","BSTAR":"-0.00004538900000","COUNTRY_CODE":"US","ELEMENT_SET_NO":"999","NORAD_CAT_ID":"45574","PERIOD":"95.592"},{"ARG_OF_PERICENTER":"69.5282","LAUNCH_DATE":"2020-04-22","MEAN_ELEMENT_THEORY":"SGP4","APOAPSIS":"512.810","CENTER_NAME":"EARTH","REF_FRAME":"TEME","ECCENTRICITY":"0.00034820","TLE_LINE2":"2 45575  52.9973 277.8728 0003482  69.5282 290.6085 15.18488016137028","MEAN_MOTION_DOT":"0.00030822","RCS_SIZE":"LARGE","OBJECT_NAME":"STARLINK-1326","RA_OF_ASC_NODE":"277.8728","PERIAPSIS":"508.013","INCLINATION":"52.9973","CLASSIFICATION_TYPE":"U","EPHEMERIS_TYPE":"0","MEAN_MOTION":"15.18488016","GP_ID":"214155054","EPOCH":"2022-10-04T11:36:43.612704","NORAD_CAT_ID":"45575","COUNTRY_CODE":"US","BSTAR":"0.00148530000000","ELEMENT_SET_NO":"999","PERIOD":"94.831","SEMIMAJOR_AXIS":"6888.547","MEAN_ANOMALY":"290.6085","REV_AT_EPOCH":"13702","DECAY_DATE":null,"TIME_SYSTEM":"UTC","MEAN_MOTION_DDOT":"0.0000000000000","OBJECT_TYPE":"PAYLOAD","SITE":"AFETR","FILE":"3591197","OBJECT_ID":"2020-025AW","TLE_LINE1":"1 45575U 20025AW  22277.48383811  .00030822  00000-0  14853-2 0  9999"},{"CLASSIFICATION_TYPE":"U","PERIAPSIS":"546.082","INCLINATION":"53.0568","EPHEMERIS_TYPE":"0","REF_FRAME":"TEME","ECCENTRICITY":"0.00016580","TLE_LINE2":"2 45576  53.0568 296.7546 0001658  60.9084 299.2071 15.06394401136825","RA_OF_ASC_NODE":"296.7546","MEAN_MOTION_DOT":"0.00001156","RCS_SIZE":"LARGE","OBJECT_NAME":"STARLINK-1328","APOAPSIS":"548.379","MEAN_ELEMENT_THEORY":"SGP4","CENTER_NAME":"EARTH","ARG_OF_PERICENTER":"60.9084","LAUNCH_DATE":"2020-04-22","FILE":"3591597","TLE_LINE1":"1 45576U 20025AX  22277.75999406  .00001156  00000-0  96485-4 0  9994","OBJECT_ID":"2020-025AX","REV_AT_EPOCH":"13682","MEAN_MOTION_DDOT":"0.0000000000000","DECAY_DATE":null,"TIME_SYSTEM":"UTC","OBJECT_TYPE":"PAYLOAD","SITE":"AFETR","COUNTRY_CODE":"US","BSTAR":"0.00009648500000","NORAD_CAT_ID":"45576","ELEMENT_SET_NO":"999","PERIOD":"95.592","MEAN_ANOMALY":"299.2071","SEMIMAJOR_AXIS":"6925.366","MEAN_MOTION":"15.06394401","GP_ID":"214187692","EPOCH":"2022-10-04T18:14:23.486784"},{"EPOCH":"2022-10-04T18:00:55.365984","GP_ID":"214187942","MEAN_MOTION":"15.08118192","SEMIMAJOR_AXIS":"6920.088","MEAN_ANOMALY":"299.7313","COUNTRY_CODE":"US","ELEMENT_SET_NO":"999","BSTAR":"0.00191050000000","NORAD_CAT_ID":"45577","PERIOD":"95.483","OBJECT_TYPE":"PAYLOAD","SITE":"AFETR","REV_AT_EPOCH":"13681","DECAY_DATE":null,"TIME_SYSTEM":"UTC","MEAN_MOTION_DDOT":"0.0000000000000","FILE":"3591597","OBJECT_ID":"2020-025AY","TLE_LINE1":"1 45577U 20025AY  22277.75064081  .00029655  00000-0  19105-2 0  9993","ARG_OF_PERICENTER":"60.3872","LAUNCH_DATE":"2020-04-22","MEAN_ELEMENT_THEORY":"SGP4","APOAPSIS":"543.312","CENTER_NAME":"EARTH","TLE_LINE2":"2 45577  53.0544 296.4650 0001964  60.3872 299.7313 15.08118192136818","RCS_SIZE":"LARGE","MEAN_MOTION_DOT":"0.00029655","OBJECT_NAME":"STARLINK-1330","RA_OF_ASC_NODE":"296.4650","REF_FRAME":"TEME","ECCENTRICITY":"0.00019640","EPHEMERIS_TYPE":"0","INCLINATION":"53.0544","PERIAPSIS":"540.593","CLASSIFICATION_TYPE":"U"},{"SEMIMAJOR_AXIS":"6925.343","MEAN_ANOMALY":"297.3820","NORAD_CAT_ID":"45578","COUNTRY_CODE":"US","BSTAR":"0.00007077600000","ELEMENT_SET_NO":"999","PERIOD":"95.592","EPOCH":"2022-10-04T18:03:46.374912","GP_ID":"214189194","MEAN_MOTION":"15.06401972","FILE":"3591597","OBJECT_ID":"2020-025AZ","TLE_LINE1":"1 45578U 20025AZ  22277.75262008  .00000773  00000-0  70776-4 0  9996","OBJECT_TYPE":"PAYLOAD","SITE":"AFETR","REV_AT_EPOCH":"13682","DECAY_DATE":null,"TIME_SYSTEM":"UTC","MEAN_MOTION_DDOT":"0.0000000000000","MEAN_ELEMENT_THEORY":"SGP4","APOAPSIS":"548.326","CENTER_NAME":"EARTH","ARG_OF_PERICENTER":"62.7333","LAUNCH_DATE":"2020-04-22","EPHEMERIS_TYPE":"0","INCLINATION":"53.0558","PERIAPSIS":"546.089","CLASSIFICATION_TYPE":"U","TLE_LINE2":"2 45578  53.0558 296.7773 0001615  62.7333 297.3820 15.06401972136821","RCS_SIZE":"LARGE","MEAN_MOTION_DOT":"0.00000773","OBJECT_NAME":"STARLINK-1331","RA_OF_ASC_NODE":"296.7773","REF_FRAME":"TEME","ECCENTRICITY":"0.00016150"}];
